{
  "type": "FeatureCollection",
  "features": [
    {
      "type": "Feature",
      "properties": {
        "norad_id": 66645,
        "name": "SHENZHOU-22",
        "group": "last-30-days",
        "lat": -30.381692883285407,
        "lon": -66.58742027741899,
        "alt_km": 394.493086256427,
        "timestamp": "2025-12-03T15:48:01.920713+00:00",
        "meta_object_name": "SHENZHOU-22",
        "meta_object_id": "2025-272A",
        "meta_epoch": "2025-12-03T08:40:01.753824",
        "meta_mean_motion": 15.58580261,
        "meta_eccentricity": 0.00100709,
        "meta_inclination": 41.4677,
        "meta_ra_of_asc_node": 73.6192,
        "meta_arg_of_pericenter": 319.5464,
        "meta_mean_anomaly": 40.4624,
        "meta_ephemeris_type": 0,
        "meta_classification_type": "U",
        "meta_norad_cat_id": 66645,
        "meta_element_set_no": 999,
        "meta_rev_at_epoch": 26257,
        "meta_bstar": 0.00034171532,
        "meta_mean_motion_dot": 0.00026743,
        "meta_mean_motion_ddot": 0,
        "tle_line1": "1 66645U 25272A   25337.36113141  .00026743  00000+0  34172-3 0  9996",
        "tle_line2": "2 66645  41.4677  73.6192 0010070 319.5464  40.4624 15.58580261262579"
      },
      "geometry": {
        "type": "Point",
        "coordinates": [
          -66.58742027741899,
          -30.381692883285407
        ]
      }
    },
    {
      "type": "Feature",
      "properties": {
        "norad_id": 66646,
        "name": "CZ-2F R/B",
        "group": "last-30-days",
        "lat": -8.137528157144457,
        "lon": -102.52256393544677,
        "alt_km": 183.94970646469847,
        "timestamp": "2025-12-03T15:48:01.920723+00:00",
        "meta_object_name": "CZ-2F R/B",
        "meta_object_id": "2025-272B",
        "meta_epoch": "2025-11-26T11:17:54.506400",
        "meta_mean_motion": 16.01945612,
        "meta_eccentricity": 0.01210796,
        "meta_inclination": 41.4431,
        "meta_ra_of_asc_node": 114.9009,
        "meta_arg_of_pericenter": 133.7676,
        "meta_mean_anomaly": 227.3272,
        "meta_ephemeris_type": 0,
        "meta_classification_type": "U",
        "meta_norad_cat_id": 66646,
        "meta_element_set_no": 999,
        "meta_rev_at_epoch": 21,
        "meta_bstar": 0.00029319366,
        "meta_mean_motion_dot": 0.00449059,
        "meta_mean_motion_ddot": 7.567612e-06,
        "tle_line1": "1 66646U 25272B   25330.47076975  .00449059  75676-5  29319-3 0  9998",
        "tle_line2": "2 66646  41.4431 114.9009 0121079 133.7676 227.3272 16.01945612   217"
      },
      "geometry": {
        "type": "Point",
        "coordinates": [
          -102.52256393544677,
          -8.137528157144457
        ]
      }
    },
    {
      "type": "Feature",
      "properties": {
        "norad_id": 66647,
        "name": "COSMOS 2597 (RODNIK-S 22)",
        "group": "last-30-days",
        "lat": -25.388849945066152,
        "lon": 115.67407554711193,
        "alt_km": 1505.3969848373063,
        "timestamp": "2025-12-03T15:48:01.920732+00:00",
        "meta_object_name": "COSMOS 2597 (RODNIK-S 22)",
        "meta_object_id": "2025-273A",
        "meta_epoch": "2025-12-03T08:53:46.808160",
        "meta_mean_motion": 12.41951088,
        "meta_eccentricity": 0.00081298,
        "meta_inclination": 82.4982,
        "meta_ra_of_asc_node": 292.2676,
        "meta_arg_of_pericenter": 311.2225,
        "meta_mean_anomaly": 48.8152,
        "meta_ephemeris_type": 0,
        "meta_classification_type": "U",
        "meta_norad_cat_id": 66647,
        "meta_element_set_no": 999,
        "meta_rev_at_epoch": 97,
        "meta_bstar": -0.00010945214,
        "meta_mean_motion_dot": -5e-08,
        "meta_mean_motion_ddot": 0,
        "tle_line1": "1 66647U 25273A   25337.37068065 -.00000005  00000+0 -10945-3 0  9991",
        "tle_line2": "2 66647  82.4982 292.2676 0008129 311.2225  48.8152 12.41951088   977"
      },
      "geometry": {
        "type": "Point",
        "coordinates": [
          115.67407554711193,
          -25.388849945066152
        ]
      }
    },
    {
      "type": "Feature",
      "properties": {
        "norad_id": 66648,
        "name": "COSMOS 2598 (RODNIK-S 23)",
        "group": "last-30-days",
        "lat": -33.97648462775834,
        "lon": 117.18624477125815,
        "alt_km": 1502.4913360465662,
        "timestamp": "2025-12-03T15:48:01.920742+00:00",
        "meta_object_name": "COSMOS 2598 (RODNIK-S 23)",
        "meta_object_id": "2025-273B",
        "meta_epoch": "2025-12-03T08:51:04.498848",
        "meta_mean_motion": 12.42252999,
        "meta_eccentricity": 0.00082257,
        "meta_inclination": 82.5022,
        "meta_ra_of_asc_node": 292.2747,
        "meta_arg_of_pericenter": 299.7195,
        "meta_mean_anomaly": 60.3065,
        "meta_ephemeris_type": 0,
        "meta_classification_type": "U",
        "meta_norad_cat_id": 66648,
        "meta_element_set_no": 999,
        "meta_rev_at_epoch": 97,
        "meta_bstar": -0.00010182153,
        "meta_mean_motion_dot": -4e-08,
        "meta_mean_motion_ddot": 0,
        "tle_line1": "1 66648U 25273B   25337.36880207 -.00000004  00000+0 -10182-3 0  9993",
        "tle_line2": "2 66648  82.5022 292.2747 0008225 299.7195  60.3065 12.42252999   974"
      },
      "geometry": {
        "type": "Point",
        "coordinates": [
          117.18624477125815,
          -33.97648462775834
        ]
      }
    },
    {
      "type": "Feature",
      "properties": {
        "norad_id": 66649,
        "name": "COSMOS 2599 (RODNIK-S 24)",
        "group": "last-30-days",
        "lat": -17.44056960213588,
        "lon": 114.4711289308982,
        "alt_km": 1507.8356226383885,
        "timestamp": "2025-12-03T15:48:01.920754+00:00",
        "meta_object_name": "COSMOS 2599 (RODNIK-S 24)",
        "meta_object_id": "2025-273C",
        "meta_epoch": "2025-12-03T08:56:16.954944",
        "meta_mean_motion": 12.41671843,
        "meta_eccentricity": 0.00083554,
        "meta_inclination": 82.5023,
        "meta_ra_of_asc_node": 292.2775,
        "meta_arg_of_pericenter": 321.5323,
        "meta_mean_anomaly": 38.516,
        "meta_ephemeris_type": 0,
        "meta_classification_type": "U",
        "meta_norad_cat_id": 66649,
        "meta_element_set_no": 999,
        "meta_rev_at_epoch": 97,
        "meta_bstar": -0.00010657289,
        "meta_mean_motion_dot": -5e-08,
        "meta_mean_motion_ddot": 0,
        "tle_line1": "1 66649U 25273C   25337.37241846 -.00000005  00000+0 -10657-3 0  9993",
        "tle_line2": "2 66649  82.5023 292.2775 0008355 321.5323  38.5160 12.41671843   973"
      },
      "geometry": {
        "type": "Point",
        "coordinates": [
          114.4711289308982,
          -17.44056960213588
        ]
      }
    },
    {
      "type": "Feature",
      "properties": {
        "norad_id": 66650,
        "name": "2025-274A",
        "group": "last-30-days",
        "lat": 23.804572095173125,
        "lon": 88.45250520276005,
        "alt_km": 597.1771393363315,
        "timestamp": "2025-12-03T15:48:01.920765+00:00",
        "meta_object_name": "2025-274A",
        "meta_object_id": "2025-274A",
        "meta_epoch": "2025-12-03T07:03:11.392704",
        "meta_mean_motion": 14.91607548,
        "meta_eccentricity": 0.00104255,
        "meta_inclination": 97.7383,
        "meta_ra_of_asc_node": 264.6558,
        "meta_arg_of_pericenter": 287.9401,
        "meta_mean_anomaly": 72.0681,
        "meta_ephemeris_type": 0,
        "meta_classification_type": "U",
        "meta_norad_cat_id": 66650,
        "meta_element_set_no": 999,
        "meta_rev_at_epoch": 99,
        "meta_bstar": 0.00030133631,
        "meta_mean_motion_dot": 2.972e-05,
        "meta_mean_motion_ddot": 0,
        "tle_line1": "1 66650U 25274A   25337.29388186  .00002972  00000+0  30134-3 0  9991",
        "tle_line2": "2 66650  97.7383 264.6558 0010425 287.9401  72.0681 14.91607548   998"
      },
      "geometry": {
        "type": "Point",
        "coordinates": [
          88.45250520276005,
          23.804572095173125
        ]
      }
    },
    {
      "type": "Feature",
      "properties": {
        "norad_id": 66651,
        "name": "2025-274B",
        "group": "last-30-days",
        "lat": 22.344259458895227,
        "lon": 88.21739761151264,
        "alt_km": 597.1216333833299,
        "timestamp": "2025-12-03T15:48:01.920774+00:00",
        "meta_object_name": "2025-274B",
        "meta_object_id": "2025-274B",
        "meta_epoch": "2025-12-03T07:02:49.038432",
        "meta_mean_motion": 14.91679224,
        "meta_eccentricity": 0.00107269,
        "meta_inclination": 97.7377,
        "meta_ra_of_asc_node": 264.6557,
        "meta_arg_of_pericenter": 287.4555,
        "meta_mean_anomaly": 72.5491,
        "meta_ephemeris_type": 0,
        "meta_classification_type": "U",
        "meta_norad_cat_id": 66651,
        "meta_element_set_no": 999,
        "meta_rev_at_epoch": 99,
        "meta_bstar": 0.00056631047,
        "meta_mean_motion_dot": 5.646e-05,
        "meta_mean_motion_ddot": 0,
        "tle_line1": "1 66651U 25274B   25337.29362313  .00005646  00000+0  56631-3 0  9997",
        "tle_line2": "2 66651  97.7377 264.6557 0010726 287.4555  72.5491 14.91679224   994"
      },
      "geometry": {
        "type": "Point",
        "coordinates": [
          88.21739761151264,
          22.344259458895227
        ]
      }
    }
  ]
}